[{"OBJECT_NAME":"STARS (KUKAI)","OBJECT_ID":"2009-002G","EPOCH":"2026-03-09T17:14:18.106368","MEAN_MOTION":14.9493854,"ECCENTRICITY":0.00097723,"INCLINATION":98.1461,"RA_OF_ASC_NODE":12.0831,"ARG_OF_PERICENTER":130.4363,"MEAN_ANOMALY":229.771,"EPHEMERIS_TYPE":0,"CLASSIFICATION_TYPE":"U","NORAD_CAT_ID":33498,"ELEMENT_SET_NO":999,"REV_AT_EPOCH":92361,"BSTAR":0.00058664337,"MEAN_MOTION_DOT":6.351e-5,"MEAN_MOTION_DDOT":0},{"OBJECT_NAME":"STARLINK-32587","OBJECT_ID":"2024-225T","EPOCH":"2026-03-09T22:00:01.999584","MEAN_MOTION":14.98351768,"ECCENTRICITY":0.00034209,"INCLINATION":70.0008,"RA_OF_ASC_NODE":163.7002,"ARG_OF_PERICENTER":270.5021,"MEAN_ANOMALY":8.8291,"EPHEMERIS_TYPE":0,"CLASSIFICATION_TYPE":"U","NORAD_CAT_ID":62180,"ELEMENT_SET_NO":999,"REV_AT_EPOCH":576,"BSTAR":-0.0037866844,"MEAN_MOTION_DOT":-0.00045013,"MEAN_MOTION_DDOT":0}]
